IDEFIX & ARIANE 42P R/B 
1 27422U 02021B   26040.45775942  .00000372  00000+0  15779-3 0  9990
2 27422  98.5841 339.4068 0010664 271.6638  88.3324 14.31005712239980
AQUA                    
1 27424U 02022A   26040.56336956  .00001281  00000+0  26583-3 0  9998
2 27424  98.4124   7.4277 0001477  52.4803  54.7080 14.61906461264629
CZ-4B R/B               
1 27432U 02024C   26040.64812387  .00000042  00000+0  44400-4 0  9998
2 27432  98.8902  94.1876 0051152 102.5515  11.3050 14.14542459225271
MIDORI II (ADEOS-II)    
1 27597U 02056A   26040.45155704  .00000420  00000+0  18292-3 0  9996
2 27597  98.7719 358.7437 0002141  82.5205 277.6220 14.29263696206260
H-2A R/B                
1 27601U 02056E   26040.52304238  .00000392  00000+0  15242-3 0  9998
2 27601  98.3150   1.9700 0069061 245.1997 226.6431 14.33740707210070
CZ-4B R/B               
1 28059U 03049C   26040.60111353  .00000588  00000+0  14651-3 0  9992
2 28059  98.6849  34.4111 0047417 318.5554  41.2049 14.54989170182513
CZ-2C R/B               
1 28222U 04012C   26040.62824340  .00049302  00000+0  57606-3 0  9998
2 28222  97.7303 103.3268 0015925  56.8821 303.3961 15.61305290199895
SL-16 R/B               
1 28353U 04021B   26040.10126036  .00000132  00000+0  93694-4 0  9999
2 28353  70.9998 292.4907 0002958  81.3411 278.8046 14.14590089118792
CZ-4B R/B               
1 28415U 04035C   26040.56801255  .00008869  00000+0  31655-3 0  9999
2 28415  97.3549  75.1532 0034101  69.6773 290.8126 15.28540716175616
CZ-2C R/B               
1 28480U 04046B   26040.36782035  .00000172  00000+0  79757-4 0  9990
2 28480  98.1994 317.1108 0138332 238.4202 120.3415 14.26982239104463
ARIANE 5 R/B            
1 28499U 04049H   26040.47214471  .00001193  00000+0  13730-3 0  9991
2 28499  98.2582 207.8826 0085501  82.7071 278.3851 14.85208492141604
CZ-2D R/B               
1 28738U 05024B   26040.59288769  .00037999  00000+0  51261-3 0  9999
2 28738  97.3623  54.7641 0007488 114.5274 245.6763 15.57680167135400
