CCSDS_OMM_VERS = 2.0
CREATION_DATE  = 
ORIGINATOR     = 

OBJECT_NAME    = IDEFIX & ARIANE 42P R/B
OBJECT_ID      = 2002-021B
CENTER_NAME    = EARTH
REF_FRAME      = TEME
TIME_SYSTEM    = UTC
MEAN_ELEMENT_THEORY = SGP/SGP4

EPOCH          = 2026-02-09T10:59:10.413888
MEAN_MOTION    = 14.31005712
ECCENTRICITY   = .00106646
INCLINATION    = 98.5841
RA_OF_ASC_NODE = 339.4068
ARG_OF_PERICENTER = 271.6638
MEAN_ANOMALY   = 88.3324

EPHEMERIS_TYPE = 0
CLASSIFICATION_TYPE = U
NORAD_CAT_ID   = 27422
ELEMENT_SET_NO = 999
REV_AT_EPOCH   = 23998
BSTAR          = .15779184E-3
MEAN_MOTION_DOT = .372E-5
MEAN_MOTION_DDOT = 0

CCSDS_OMM_VERS = 2.0
CREATION_DATE  = 
ORIGINATOR     = 

OBJECT_NAME    = AQUA
OBJECT_ID      = 2002-022A
CENTER_NAME    = EARTH
REF_FRAME      = TEME
TIME_SYSTEM    = UTC
MEAN_ELEMENT_THEORY = SGP/SGP4

EPOCH          = 2026-02-09T13:31:15.129984
MEAN_MOTION    = 14.61906461
ECCENTRICITY   = .00014774
INCLINATION    = 98.4124
RA_OF_ASC_NODE = 7.4277
ARG_OF_PERICENTER = 52.4803
MEAN_ANOMALY   = 54.7080

EPHEMERIS_TYPE = 0
CLASSIFICATION_TYPE = U
NORAD_CAT_ID   = 27424
ELEMENT_SET_NO = 999
REV_AT_EPOCH   = 26462
BSTAR          = .26583029E-3
MEAN_MOTION_DOT = .1281E-4
MEAN_MOTION_DDOT = 0

CCSDS_OMM_VERS = 2.0
CREATION_DATE  = 
ORIGINATOR     = 

OBJECT_NAME    = CZ-4B R/B
OBJECT_ID      = 2002-024C
CENTER_NAME    = EARTH
REF_FRAME      = TEME
TIME_SYSTEM    = UTC
MEAN_ELEMENT_THEORY = SGP/SGP4

EPOCH          = 2026-02-09T15:33:17.902368
MEAN_MOTION    = 14.14542459
ECCENTRICITY   = .00511522
INCLINATION    = 98.8902
RA_OF_ASC_NODE = 94.1876
ARG_OF_PERICENTER = 102.5515
MEAN_ANOMALY   = 11.3050

EPHEMERIS_TYPE = 0
CLASSIFICATION_TYPE = U
NORAD_CAT_ID   = 27432
ELEMENT_SET_NO = 999
REV_AT_EPOCH   = 22527
BSTAR          = .44399735E-4
MEAN_MOTION_DOT = .42E-6
MEAN_MOTION_DDOT = 0

CCSDS_OMM_VERS = 2.0
CREATION_DATE  = 
ORIGINATOR     = 

OBJECT_NAME    = MIDORI II (ADEOS-II)
OBJECT_ID      = 2002-056A
CENTER_NAME    = EARTH
REF_FRAME      = TEME
TIME_SYSTEM    = UTC
MEAN_ELEMENT_THEORY = SGP/SGP4

EPOCH          = 2026-02-09T10:50:14.528256
MEAN_MOTION    = 14.29263696
ECCENTRICITY   = .00021418
INCLINATION    = 98.7719
RA_OF_ASC_NODE = 358.7437
ARG_OF_PERICENTER = 82.5205
MEAN_ANOMALY   = 277.6220

EPHEMERIS_TYPE = 0
CLASSIFICATION_TYPE = U
NORAD_CAT_ID   = 27597
ELEMENT_SET_NO = 999
REV_AT_EPOCH   = 20626
BSTAR          = .18291685E-3
MEAN_MOTION_DOT = .42E-5
MEAN_MOTION_DDOT = 0

CCSDS_OMM_VERS = 2.0
CREATION_DATE  = 
ORIGINATOR     = 

OBJECT_NAME    = H-2A R/B
OBJECT_ID      = 2002-056E
CENTER_NAME    = EARTH
REF_FRAME      = TEME
TIME_SYSTEM    = UTC
MEAN_ELEMENT_THEORY = SGP/SGP4

EPOCH          = 2026-02-09T12:33:10.861632
MEAN_MOTION    = 14.33740707
ECCENTRICITY   = .00690616
INCLINATION    = 98.3150
RA_OF_ASC_NODE = 1.9700
ARG_OF_PERICENTER = 245.1997
MEAN_ANOMALY   = 226.6431

EPHEMERIS_TYPE = 0
CLASSIFICATION_TYPE = U
NORAD_CAT_ID   = 27601
ELEMENT_SET_NO = 999
REV_AT_EPOCH   = 21007
BSTAR          = .15242336E-3
MEAN_MOTION_DOT = .392E-5
MEAN_MOTION_DDOT = 0

CCSDS_OMM_VERS = 2.0
CREATION_DATE  = 
ORIGINATOR     = 

OBJECT_NAME    = CZ-4B R/B
OBJECT_ID      = 2003-049C
CENTER_NAME    = EARTH
REF_FRAME      = TEME
TIME_SYSTEM    = UTC
MEAN_ELEMENT_THEORY = SGP/SGP4

EPOCH          = 2026-02-09T14:25:36.208992
MEAN_MOTION    = 14.54989170
ECCENTRICITY   = .00474179
INCLINATION    = 98.6849
RA_OF_ASC_NODE = 34.4111
ARG_OF_PERICENTER = 318.5554
MEAN_ANOMALY   = 41.2049

EPHEMERIS_TYPE = 0
CLASSIFICATION_TYPE = U
NORAD_CAT_ID   = 28059
ELEMENT_SET_NO = 999
REV_AT_EPOCH   = 18251
BSTAR          = .14650668E-3
MEAN_MOTION_DOT = .588E-5
MEAN_MOTION_DDOT = 0

CCSDS_OMM_VERS = 2.0
CREATION_DATE  = 
ORIGINATOR     = 

OBJECT_NAME    = CZ-2C R/B
OBJECT_ID      = 2004-012C
CENTER_NAME    = EARTH
REF_FRAME      = TEME
TIME_SYSTEM    = UTC
MEAN_ELEMENT_THEORY = SGP/SGP4

EPOCH          = 2026-02-09T15:04:40.229760
MEAN_MOTION    = 15.61305290
ECCENTRICITY   = .00159252
INCLINATION    = 97.7303
RA_OF_ASC_NODE = 103.3268
ARG_OF_PERICENTER = 56.8821
MEAN_ANOMALY   = 303.3961

EPHEMERIS_TYPE = 0
CLASSIFICATION_TYPE = U
NORAD_CAT_ID   = 28222
ELEMENT_SET_NO = 999
REV_AT_EPOCH   = 19989
BSTAR          = .57606104E-3
MEAN_MOTION_DOT = .49302E-3
MEAN_MOTION_DDOT = 0

CCSDS_OMM_VERS = 2.0
CREATION_DATE  = 
ORIGINATOR     = 

OBJECT_NAME    = SL-16 R/B
OBJECT_ID      = 2004-021B
CENTER_NAME    = EARTH
REF_FRAME      = TEME
TIME_SYSTEM    = UTC
MEAN_ELEMENT_THEORY = SGP/SGP4

EPOCH          = 2026-02-09T02:25:48.895104
MEAN_MOTION    = 14.14590089
ECCENTRICITY   = .00029581
INCLINATION    = 70.9998
RA_OF_ASC_NODE = 292.4907
ARG_OF_PERICENTER = 81.3411
MEAN_ANOMALY   = 278.8046

EPHEMERIS_TYPE = 0
CLASSIFICATION_TYPE = U
NORAD_CAT_ID   = 28353
ELEMENT_SET_NO = 999
REV_AT_EPOCH   = 11879
BSTAR          = .9369398E-4
MEAN_MOTION_DOT = .132E-5
MEAN_MOTION_DDOT = 0

CCSDS_OMM_VERS = 2.0
CREATION_DATE  = 
ORIGINATOR     = 

OBJECT_NAME    = CZ-4B R/B
OBJECT_ID      = 2004-035C
CENTER_NAME    = EARTH
REF_FRAME      = TEME
TIME_SYSTEM    = UTC
MEAN_ELEMENT_THEORY = SGP/SGP4

EPOCH          = 2026-02-09T13:37:56.284320
MEAN_MOTION    = 15.28540716
ECCENTRICITY   = .00341017
INCLINATION    = 97.3549
RA_OF_ASC_NODE = 75.1532
ARG_OF_PERICENTER = 69.6773
MEAN_ANOMALY   = 290.8126

EPHEMERIS_TYPE = 0
CLASSIFICATION_TYPE = U
NORAD_CAT_ID   = 28415
ELEMENT_SET_NO = 999
REV_AT_EPOCH   = 17561
BSTAR          = .31654736E-3
MEAN_MOTION_DOT = .8869E-4
MEAN_MOTION_DDOT = 0

CCSDS_OMM_VERS = 2.0
CREATION_DATE  = 
ORIGINATOR     = 

OBJECT_NAME    = CZ-2C R/B
OBJECT_ID      = 2004-046B
CENTER_NAME    = EARTH
REF_FRAME      = TEME
TIME_SYSTEM    = UTC
MEAN_ELEMENT_THEORY = SGP/SGP4

EPOCH          = 2026-02-09T08:49:39.678240
MEAN_MOTION    = 14.26982239
ECCENTRICITY   = .01383324
INCLINATION    = 98.1994
RA_OF_ASC_NODE = 317.1108
ARG_OF_PERICENTER = 238.4202
MEAN_ANOMALY   = 120.3415

EPHEMERIS_TYPE = 0
CLASSIFICATION_TYPE = U
NORAD_CAT_ID   = 28480
ELEMENT_SET_NO = 999
REV_AT_EPOCH   = 10446
BSTAR          = .79756502E-4
MEAN_MOTION_DOT = .172E-5
MEAN_MOTION_DDOT = 0

CCSDS_OMM_VERS = 2.0
CREATION_DATE  = 
ORIGINATOR     = 

OBJECT_NAME    = ARIANE 5 R/B
OBJECT_ID      = 2004-049H
CENTER_NAME    = EARTH
REF_FRAME      = TEME
TIME_SYSTEM    = UTC
MEAN_ELEMENT_THEORY = SGP/SGP4

EPOCH          = 2026-02-09T11:19:53.302944
MEAN_MOTION    = 14.85208492
ECCENTRICITY   = .00855018
INCLINATION    = 98.2582
RA_OF_ASC_NODE = 207.8826
ARG_OF_PERICENTER = 82.7071
MEAN_ANOMALY   = 278.3851

EPHEMERIS_TYPE = 0
CLASSIFICATION_TYPE = U
NORAD_CAT_ID   = 28499
ELEMENT_SET_NO = 999
REV_AT_EPOCH   = 14160
BSTAR          = .13729564E-3
MEAN_MOTION_DOT = .1193E-4
MEAN_MOTION_DDOT = 0

CCSDS_OMM_VERS = 2.0
CREATION_DATE  = 
ORIGINATOR     = 

OBJECT_NAME    = CZ-2D R/B
OBJECT_ID      = 2005-024B
CENTER_NAME    = EARTH
REF_FRAME      = TEME
TIME_SYSTEM    = UTC
MEAN_ELEMENT_THEORY = SGP/SGP4

EPOCH          = 2026-02-09T14:13:45.496416
MEAN_MOTION    = 15.57680167
ECCENTRICITY   = .00074884
INCLINATION    = 97.3623
RA_OF_ASC_NODE = 54.7641
ARG_OF_PERICENTER = 114.5274
MEAN_ANOMALY   = 245.6763

EPHEMERIS_TYPE = 0
CLASSIFICATION_TYPE = U
NORAD_CAT_ID   = 28738
ELEMENT_SET_NO = 999
REV_AT_EPOCH   = 13540
BSTAR          = .51260851E-3
MEAN_MOTION_DOT = .37999E-3
MEAN_MOTION_DDOT = 0

